ISS (ZARYA)             
1 25544U 98067A   26038.50283897  .00012054  00000+0  23050-3 0  9995
2 25544  51.6315 221.5822 0011000  74.6214 285.5989 15.48462076551652
CSS (TIANHE)            
1 48274U 21035A   26038.37011297  .00025203  00000+0  31398-3 0  9993
2 48274  41.4682  32.4562 0005154  20.8908 339.2140 15.59318584272873
ISS (NAUKA)             
1 49044U 21066A   26038.50283897  .00012054  00000+0  23050-3 0  9991
2 49044  51.6315 221.5822 0011000  74.6214 285.5989 15.48462076230444
FREGAT DEB              
1 49271U 11037PF  26036.33500904  .00055371  00000+0  93522-1 0  9998
2 49271  51.6559  37.5500 0926622 345.1637  12.3633 12.37884067208680
CSS (WENTIAN)           
1 53239U 22085A   26038.37011297  .00025203  00000+0  31398-3 0  9996
2 53239  41.4682  32.4562 0005154  20.8908 339.2140 15.59318584173847
CSS (MENGTIAN)          
1 54216U 22143A   26038.37011297  .00025203  00000+0  31398-3 0  9997
2 54216  41.4682  32.4562 0005154  20.8908 339.2140 15.59318584158644
PROGRESS-MS 31          
1 64751U 25146A   26038.50283897  .00012054  00000+0  23050-3 0  9996
2 64751  51.6315 221.5822 0011000  74.6214 285.5989 15.48462076  6751
TIANZHOU-9              
1 64786U 25149A   26038.37011297  .00025203  00000+0  31398-3 0  9999
2 64786  41.4682  32.4562 0005154  20.8908 339.2140 15.59318584255308
DRAGON CRS-33           
1 65304U 25186A   26038.50283897  .00012054  00000+0  23050-3 0  9995
2 65304  51.6315 221.5822 0011000  74.6214 285.5989 15.48462076   110
PROGRESS-MS 32          
1 65586U 25204A   26038.50283897  .00012054  00000+0  23050-3 0  9998
2 65586  51.6315 221.5822 0011000  74.6214 285.5989 15.48462076   279
CYGNUS NG-23            
1 65616U 25208A   26038.50283897  .00012054  00000+0  23050-3 0  9996
2 65616  51.6315 221.5822 0011000  74.6214 285.5989 15.48462076   228
ISS OBJECT XK           
1 65731U 98067XK  26038.64945697  .00291158  00000+0  12353-2 0  9992
2 65731  51.6229 205.2613 0003586 264.8337  95.2257 15.83956581 22109
RSP-03                  
1 65732U 98067XL  26038.53927976  .00824092  33140-3  15121-2 0  9991
2 65732  51.6154 202.1944 0006871 290.5038  69.5234 16.00678585 22142
YOTSUBA-KULOVER         
1 65941U 98067XN  26038.56776926  .00146189  00000+0  11450-2 0  9993
2 65941  51.6241 212.2568 0004066 247.4596 112.5971 15.70598604 18757
BOTAN                   
1 65942U 98067XP  26038.64166956  .00363445  00000+0  15398-2 0  9990
2 65942  51.6181 208.2035 0006147 270.8199  89.2099 15.83788445 18812
E-KAGAKU-1              
1 65943U 98067XQ  26038.50486266  .00159163  00000+0  12502-2 0  9999
2 65943  51.6260 212.5982 0003452 263.4572  96.6032 15.70487632 18740
HRC MONOBLOCK CAMERA    
1 66052U 98067XR  26038.47505320  .00061204  00000+0  76918-3 0  9990
2 66052  51.6274 217.6508 0000927 355.1083   4.9901 15.59091944 17679
HTV-X1                  
1 66174U 25241A   26038.50283897  .00012054  00000+0  23050-3 0  9993
2 66174  51.6315 221.5822 0011000  74.6214 285.5989 15.48462076   510
SZ-21 MODULE            
1 66515U 25246C   26038.04255016  .00039980  00000+0  37769-3 0  9997
2 66515  41.4765  31.6776 0002982 280.6957  79.3548 15.66234853 13261
SHENZHOU-22             
1 66645U 25272A   26038.37011297  .00025203  00000+0  31398-3 0  9992
2 66645  41.4682  32.4562 0005154  20.8908 339.2140 15.59318584267644
SOYUZ-MS 28             
1 66664U 25275A   26038.50283897  .00012054  00000+0  23050-3 0  9994
2 66664  51.6315 221.5822 0011000  74.6214 285.5989 15.48462076  1289
DUPLEX                  
1 66906U 98067XS  26038.51247973  .00042973  00000+0  65342-3 0  9991
2 66906  51.6288 220.1491 0001367  83.1919 276.9227 15.54105616 10433
ISS OBJECT XT           
1 66907U 98067XT  26038.50608215  .00139388  00000+0  15833-2 0  9997
2 66907  51.6269 218.6048 0002114 217.1792 142.9055 15.61360236 10454
ISS OBJECT XU           
1 66908U 98067XU  26038.50552559  .00139077  00000+0  15777-2 0  9999
2 66908  51.6264 218.5996 0001723 222.4065 137.6796 15.61395900 10457
SILVERSAT               
1 66909U 98067XV  26038.48133679  .00161676  00000+0  17343-2 0  9996
2 66909  51.6271 218.4396 0002551 229.2815 130.7958 15.62750268 10454
ISS OBJECT XW           
1 66910U 98067XW  26037.72755906  .00114383  00000+0  13119-2 0  9997
2 66910  51.6257 222.4006 0000958 240.3067 119.7831 15.61211268 10330
ISS OBJECT XX           
1 66911U 98067XX  26037.74954576  .00154731  00000+0  15986-2 0  9999
2 66911  51.6250 221.7970 0002423 254.7739 105.2988 15.63735398 10330
ISS OBJECT XY           
1 66912U 98067XY  26038.49201159  .00097064  00000+0  12349-2 0  9990
2 66912  51.6282 219.2626 0001118 161.1968 198.9066 15.58567239 10439
ISS OBJECT XZ           
1 67683U 98067XZ  26038.62969796  .00046050  00000+0  82570-3 0  9992
2 67683  51.6308 220.9279 0011052  90.0422 270.1833 15.49399547   125
ISS OBJECT YA           
1 67684U 98067YA  26038.62900129  .00079147  00000+0  13870-2 0  9997
2 67684  51.6309 220.9247 0013103  85.8008 274.4478 15.49787498   121
LEOPARD                 
1 67685U 98067YB  26037.92012590  .00047751  00000+0  85682-3 0  9993
2 67685  51.6312 224.4405 0007864  62.7877 297.3912 15.49395303   549
ISS OBJECT YC           
1 67686U 98067YC  26038.56495929  .00054837  00000+0  97720-3 0  9995
2 67686  51.6315 221.2469 0007758  63.0747 297.1033 15.49531571   114
CORAL                   
1 67687U 98067YD  26038.43610972  .00050121  00000+0  89722-3 0  9994
2 67687  51.6313 221.8860 0007860  64.4814 295.6987 15.49440924    19
GXIBA-1                 
1 67688U 98067YE  26038.62945489  .00053221  00000+0  94880-3 0  9995
2 67688  51.6319 220.9283 0007826  63.9278 296.2516 15.49532401    45
